CCSDS_OMM_VERS = 2.0
CREATION_DATE  = 
ORIGINATOR     = 

OBJECT_NAME    = KUIPER-00214
OBJECT_ID      = 2026-030Q
CENTER_NAME    = EARTH
REF_FRAME      = TEME
TIME_SYSTEM    = UTC
MEAN_ELEMENT_THEORY = SGP/SGP4

EPOCH          = 2026-03-03T12:02:17.525472
MEAN_MOTION    = 15.36494152
ECCENTRICITY   = .0001037
INCLINATION    = 51.8839
RA_OF_ASC_NODE = 248.8521
ARG_OF_PERICENTER = 198.4167
MEAN_ANOMALY   = 161.6782

EPHEMERIS_TYPE = 0
CLASSIFICATION_TYPE = U
NORAD_CAT_ID   = 67778
ELEMENT_SET_NO = 999
REV_AT_EPOCH   = 414
BSTAR          = .69834E-3
MEAN_MOTION_DOT = .24951E-3
MEAN_MOTION_DDOT = 0

CCSDS_OMM_VERS = 2.0
CREATION_DATE  = 
ORIGINATOR     = 

OBJECT_NAME    = KUIPER-00215
OBJECT_ID      = 2026-030R
CENTER_NAME    = EARTH
REF_FRAME      = TEME
TIME_SYSTEM    = UTC
MEAN_ELEMENT_THEORY = SGP/SGP4

EPOCH          = 2026-03-03T11:08:32.902944
MEAN_MOTION    = 15.34154836
ECCENTRICITY   = .0009818
INCLINATION    = 51.8824
RA_OF_ASC_NODE = 249.3454
ARG_OF_PERICENTER = 42.6383
MEAN_ANOMALY   = 317.5363

EPHEMERIS_TYPE = 0
CLASSIFICATION_TYPE = U
NORAD_CAT_ID   = 67779
ELEMENT_SET_NO = 999
REV_AT_EPOCH   = 413
BSTAR          = .73705E-3
MEAN_MOTION_DOT = .24468E-3
MEAN_MOTION_DDOT = 0

CCSDS_OMM_VERS = 2.0
CREATION_DATE  = 
ORIGINATOR     = 

OBJECT_NAME    = KUIPER-00218
OBJECT_ID      = 2026-030S
CENTER_NAME    = EARTH
REF_FRAME      = TEME
TIME_SYSTEM    = UTC
MEAN_ELEMENT_THEORY = SGP/SGP4

EPOCH          = 2026-03-03T12:29:50.464608
MEAN_MOTION    = 15.34875694
ECCENTRICITY   = .0006323
INCLINATION    = 51.8824
RA_OF_ASC_NODE = 248.9743
ARG_OF_PERICENTER = 34.4413
MEAN_ANOMALY   = 325.6982

EPHEMERIS_TYPE = 0
CLASSIFICATION_TYPE = U
NORAD_CAT_ID   = 67780
ELEMENT_SET_NO = 999
REV_AT_EPOCH   = 414
BSTAR          = .71305E-3
MEAN_MOTION_DOT = .24192E-3
MEAN_MOTION_DDOT = 0

CCSDS_OMM_VERS = 2.0
CREATION_DATE  = 
ORIGINATOR     = 

OBJECT_NAME    = KUIPER-00220
OBJECT_ID      = 2026-030T
CENTER_NAME    = EARTH
REF_FRAME      = TEME
TIME_SYSTEM    = UTC
MEAN_ELEMENT_THEORY = SGP/SGP4

EPOCH          = 2026-03-03T12:37:53.189184
MEAN_MOTION    = 15.34463038
ECCENTRICITY   = .0008012
INCLINATION    = 51.8798
RA_OF_ASC_NODE = 249.0050
ARG_OF_PERICENTER = 40.5408
MEAN_ANOMALY   = 319.6173

EPHEMERIS_TYPE = 0
CLASSIFICATION_TYPE = U
NORAD_CAT_ID   = 67781
ELEMENT_SET_NO = 999
REV_AT_EPOCH   = 414
BSTAR          = .10494E-2
MEAN_MOTION_DOT = .3538E-3
MEAN_MOTION_DDOT = 0

CCSDS_OMM_VERS = 2.0
CREATION_DATE  = 
ORIGINATOR     = 

OBJECT_NAME    = KUIPER-00222
OBJECT_ID      = 2026-030U
CENTER_NAME    = EARTH
REF_FRAME      = TEME
TIME_SYSTEM    = UTC
MEAN_ELEMENT_THEORY = SGP/SGP4

EPOCH          = 2026-03-03T11:32:16.044864
MEAN_MOTION    = 15.32266823
ECCENTRICITY   = .0017328
INCLINATION    = 51.8792
RA_OF_ASC_NODE = 249.4426
ARG_OF_PERICENTER = 37.7050
MEAN_ANOMALY   = 322.5146

EPHEMERIS_TYPE = 0
CLASSIFICATION_TYPE = U
NORAD_CAT_ID   = 67782
ELEMENT_SET_NO = 999
REV_AT_EPOCH   = 413
BSTAR          = .17935E-2
MEAN_MOTION_DOT = .57017E-3
MEAN_MOTION_DDOT = 0

CCSDS_OMM_VERS = 2.0
CREATION_DATE  = 
ORIGINATOR     = 

OBJECT_NAME    = KUIPER-00223
OBJECT_ID      = 2026-030V
CENTER_NAME    = EARTH
REF_FRAME      = TEME
TIME_SYSTEM    = UTC
MEAN_ELEMENT_THEORY = SGP/SGP4

EPOCH          = 2026-03-03T11:12:55.869120
MEAN_MOTION    = 15.33947754
ECCENTRICITY   = .0012154
INCLINATION    = 51.8812
RA_OF_ASC_NODE = 249.3620
ARG_OF_PERICENTER = 42.7326
MEAN_ANOMALY   = 317.4602

EPHEMERIS_TYPE = 0
CLASSIFICATION_TYPE = U
NORAD_CAT_ID   = 67783
ELEMENT_SET_NO = 999
REV_AT_EPOCH   = 413
BSTAR          = .70615E-3
MEAN_MOTION_DOT = .23285E-3
MEAN_MOTION_DDOT = 0

CCSDS_OMM_VERS = 2.0
CREATION_DATE  = 
ORIGINATOR     = 

OBJECT_NAME    = KUIPER-00225
OBJECT_ID      = 2026-030W
CENTER_NAME    = EARTH
REF_FRAME      = TEME
TIME_SYSTEM    = UTC
MEAN_ELEMENT_THEORY = SGP/SGP4

EPOCH          = 2026-03-03T12:18:13.894848
MEAN_MOTION    = 15.35595886
ECCENTRICITY   = .0003836
INCLINATION    = 51.8805
RA_OF_ASC_NODE = 248.9174
ARG_OF_PERICENTER = 23.6192
MEAN_ANOMALY   = 336.4969

EPHEMERIS_TYPE = 0
CLASSIFICATION_TYPE = U
NORAD_CAT_ID   = 67784
ELEMENT_SET_NO = 999
REV_AT_EPOCH   = 414
BSTAR          = .70952E-3
MEAN_MOTION_DOT = .2463E-3
MEAN_MOTION_DDOT = 0

CCSDS_OMM_VERS = 2.0
CREATION_DATE  = 
ORIGINATOR     = 

OBJECT_NAME    = KUIPER-00226
OBJECT_ID      = 2026-030X
CENTER_NAME    = EARTH
REF_FRAME      = TEME
TIME_SYSTEM    = UTC
MEAN_ELEMENT_THEORY = SGP/SGP4

EPOCH          = 2026-03-03T10:12:33.971616
MEAN_MOTION    = 15.31367077
ECCENTRICITY   = .0018485
INCLINATION    = 51.8805
RA_OF_ASC_NODE = 249.8189
ARG_OF_PERICENTER = 55.5970
MEAN_ANOMALY   = 304.6758

EPHEMERIS_TYPE = 0
CLASSIFICATION_TYPE = U
NORAD_CAT_ID   = 67785
ELEMENT_SET_NO = 999
REV_AT_EPOCH   = 412
BSTAR          = .80181E-3
MEAN_MOTION_DOT = .24481E-3
MEAN_MOTION_DDOT = 0

CCSDS_OMM_VERS = 2.0
CREATION_DATE  = 
ORIGINATOR     = 

OBJECT_NAME    = KUIPER-00259
OBJECT_ID      = 2026-030Y
CENTER_NAME    = EARTH
REF_FRAME      = TEME
TIME_SYSTEM    = UTC
MEAN_ELEMENT_THEORY = SGP/SGP4

EPOCH          = 2026-03-03T12:32:35.481696
MEAN_MOTION    = 15.34784132
ECCENTRICITY   = .0007811
INCLINATION    = 51.8800
RA_OF_ASC_NODE = 248.9813
ARG_OF_PERICENTER = 33.9567
MEAN_ANOMALY   = 326.1917

EPHEMERIS_TYPE = 0
CLASSIFICATION_TYPE = U
NORAD_CAT_ID   = 67786
ELEMENT_SET_NO = 999
REV_AT_EPOCH   = 414
BSTAR          = .10077E-2
MEAN_MOTION_DOT = .34303E-3
MEAN_MOTION_DDOT = 0

CCSDS_OMM_VERS = 2.0
CREATION_DATE  = 
ORIGINATOR     = 

OBJECT_NAME    = KUIPER-00260
OBJECT_ID      = 2026-030Z
CENTER_NAME    = EARTH
REF_FRAME      = TEME
TIME_SYSTEM    = UTC
MEAN_ELEMENT_THEORY = SGP/SGP4

EPOCH          = 2026-03-03T12:08:11.546016
MEAN_MOTION    = 15.36153782
ECCENTRICITY   = .0000831
INCLINATION    = 51.8794
RA_OF_ASC_NODE = 248.8712
ARG_OF_PERICENTER = 66.9733
MEAN_ANOMALY   = 293.1341

EPHEMERIS_TYPE = 0
CLASSIFICATION_TYPE = U
NORAD_CAT_ID   = 67787
ELEMENT_SET_NO = 999
REV_AT_EPOCH   = 405
BSTAR          = .71753E-3
MEAN_MOTION_DOT = .25367E-3
MEAN_MOTION_DDOT = 0

CCSDS_OMM_VERS = 2.0
CREATION_DATE  = 
ORIGINATOR     = 

OBJECT_NAME    = KUIPER-00262
OBJECT_ID      = 2026-030AA
CENTER_NAME    = EARTH
REF_FRAME      = TEME
TIME_SYSTEM    = UTC
MEAN_ELEMENT_THEORY = SGP/SGP4

EPOCH          = 2026-03-03T12:03:41.048352
MEAN_MOTION    = 15.36466735
ECCENTRICITY   = .0000633
INCLINATION    = 51.8807
RA_OF_ASC_NODE = 248.8536
ARG_OF_PERICENTER = 150.8244
MEAN_ANOMALY   = 209.2778

EPHEMERIS_TYPE = 0
CLASSIFICATION_TYPE = U
NORAD_CAT_ID   = 67788
ELEMENT_SET_NO = 999
REV_AT_EPOCH   = 414
BSTAR          = .7406E-3
MEAN_MOTION_DOT = .26466E-3
MEAN_MOTION_DDOT = 0

CCSDS_OMM_VERS = 2.0
CREATION_DATE  = 
ORIGINATOR     = 

OBJECT_NAME    = KUIPER-00266
OBJECT_ID      = 2026-030AB
CENTER_NAME    = EARTH
REF_FRAME      = TEME
TIME_SYSTEM    = UTC
MEAN_ELEMENT_THEORY = SGP/SGP4

EPOCH          = 2026-03-03T10:18:30.972960
MEAN_MOTION    = 15.30975633
ECCENTRICITY   = .0022599
INCLINATION    = 51.8811
RA_OF_ASC_NODE = 249.8434
ARG_OF_PERICENTER = 53.8564
MEAN_ANOMALY   = 306.4507

EPHEMERIS_TYPE = 0
CLASSIFICATION_TYPE = U
NORAD_CAT_ID   = 67789
ELEMENT_SET_NO = 999
REV_AT_EPOCH   = 412
BSTAR          = -.34243E-3
MEAN_MOTION_DOT = -.10847E-3
MEAN_MOTION_DDOT = 0

